NORAD_CAT_ID,OBJECT_NAME,OBJECT_TYPE,EPOCH,MEAN_MOTION,ECCENTRICITY,INCLINATION,RA_OF_ASC_NODE,ARG_OF_PERICENTER,MEAN_ANOMALY,BSTAR,MEAN_MOTION_DOT,MEAN_MOTION_DDOT,TLE_LINE0,TLE_LINE1,TLE_LINE2,SEMIMAJOR_AXIS,PERIOD,APOGEE,PERIGEE,DECAYED
55761.0,STARLINK-5611,PAYLOAD,2024-08-22 04:50:05,14.98333947,0.0002984,69.9996,207.9174,269.8276,90.2541,2.7834e-06,-6e-07,0.0,0 STARLINK-5611,1 55761U 23028W   24235.20145734 -.00000060  00000-0  27834-5 0  9997,2 55761  69.9996 207.9174 0002984 269.8276  90.2541 14.98333947 81974,6950.181,96.107,574.12,569.972,0.0
